NORAD_CAT_ID,OBJECT_NAME,OBJECT_TYPE,EPOCH,MEAN_MOTION,ECCENTRICITY,INCLINATION,RA_OF_ASC_NODE,ARG_OF_PERICENTER,MEAN_ANOMALY,BSTAR,MEAN_MOTION_DOT,MEAN_MOTION_DDOT,TLE_LINE0,TLE_LINE1,TLE_LINE2,SEMIMAJOR_AXIS,PERIOD,APOGEE,PERIGEE,DECAYED
53978.0,STARLINK-5148,PAYLOAD,2024-03-04 21:21:04,15.08851021,0.0001186,53.216,277.6831,91.2855,268.8273,0.00014926,2.089e-05,0.0,0 STARLINK-5148,1 53978U 22125Q   24064.88963208  .00002089  00000-0  14926-3 0  9998,2 53978  53.2160 277.6831 0001186  91.2855 268.8273 15.08851021 78531,6917.847,95.437,540.532,538.891,0.0
53978.0,STARLINK-5148,PAYLOAD,2024-03-05 13:14:53,15.08865015,9.96e-05,53.2177,274.7081,84.1675,275.9431,0.00033062,4.981e-05,0.0,0 STARLINK-5148,1 53978U 22125Q   24065.55201296  .00004981  00000-0  33062-3 0  9990,2 53978  53.2177 274.7081 0000996  84.1675 275.9431 15.08865015 78569,6917.804,95.436,540.358,538.98,0.0
53978.0,STARLINK-5148,PAYLOAD,2024-03-05 21:11:50,15.08841272,0.0001275,53.2152,273.2215,115.9058,244.2066,-0.00019575,-3.402e-05,0.0,0 STARLINK-5148,1 53978U 22125Q   24065.88322576 -.00003402  00000-0 -19575-3 0  9993,2 53978  53.2152 273.2215 0001275 115.9058 244.2066 15.08841272 78689,6917.877,95.437,540.624,538.859,0.0
53978.0,STARLINK-5148,PAYLOAD,2024-03-06 13:05:42,15.08829857,0.0001203,53.2152,270.2488,106.1757,253.9368,-0.00026398,-4.485e-05,0.0,0 STARLINK-5148,1 53978U 22125Q   24066.54563307 -.00004485  00000-0 -26398-3 0  9999,2 53978  53.2152 270.2488 0001203 106.1757 253.9368 15.08829857 78718,6917.911,95.438,540.609,538.944,0.0
53978.0,STARLINK-5148,PAYLOAD,2024-03-06 19:27:16,15.08828083,0.0001275,53.2163,269.0588,104.9411,255.1722,-0.00011687,-2.147e-05,0.0,0 STARLINK-5148,1 53978U 22125Q   24066.81060661 -.00002147  00000-0 -11687-3 0  9992,2 53978  53.2163 269.0588 0001275 104.9411 255.1722 15.08828083 78829,6917.917,95.438,540.664,538.9,0.0
53978.0,STARLINK-5148,PAYLOAD,2024-03-07 12:56:30,15.0882804,9.58e-05,53.2162,265.7827,116.6734,243.4356,-2.3276e-05,-6.58e-06,0.0,0 STARLINK-5148,1 53978U 22125Q   24067.53924394 -.00000658  00000-0 -23276-4 0  9997,2 53978  53.2162 265.7827 0000958 116.6734 243.4356 15.08828040 78862,6917.917,95.438,540.445,539.119,0.0
53978.0,STARLINK-5148,PAYLOAD,2024-03-08 12:47:18,15.08826568,9.8e-05,53.2192,261.3244,119.1499,240.9592,0.0001058,1.396e-05,0.0,0 STARLINK-5148,1 53978U 22125Q   24068.53284962  .00001396  00000-0  10580-3 0  9999,2 53978  53.2192 261.3244 0000980 119.1499 240.9592 15.08826568 79016,6917.921,95.438,540.464,539.108,0.0
53978.0,STARLINK-5148,PAYLOAD,2024-03-08 19:08:50,15.08837623,6.3e-05,53.2192,260.1349,134.1589,225.9455,0.00018866,2.716e-05,0.0,0 STARLINK-5148,1 53978U 22125Q   24068.79780151  .00002716  00000-0  18866-3 0  9990,2 53978  53.2192 260.1349 0000630 134.1589 225.9455 15.08837623 79125,6917.888,95.438,540.188,539.317,0.0
53978.0,STARLINK-5148,PAYLOAD,2024-03-09 06:16:24,15.08947392,7.38e-05,53.2196,258.051,88.2903,271.8174,0.00096575,0.00015161,0.0,0 STARLINK-5148,1 53978U 22125Q   24069.26139788  .00015161  00000-0  96575-3 0  9998,2 53978  53.2196 258.0510 0000738  88.2903 271.8174 15.08947392 79193,6917.552,95.431,539.928,538.907,0.0
53978.0,STARLINK-5148,PAYLOAD,2024-03-09 12:38:05,15.0883202,0.0001067,53.2183,256.8627,105.5785,254.5325,0.00018731,2.694e-05,0.0,0 STARLINK-5148,1 53978U 22125Q   24069.52644774  .00002694  00000-0  18731-3 0  9998,2 53978  53.2183 256.8627 0001067 105.5785 254.5325 15.08832020 79165,6917.905,95.438,540.508,539.032,0.0
53978.0,STARLINK-5148,PAYLOAD,2024-03-09 18:59:37,15.08831655,9.25e-05,53.218,255.6738,110.5106,249.5986,0.00027869,4.149e-05,0.0,0 STARLINK-5148,1 53978U 22125Q   24069.79140689  .00004149  00000-0  27869-3 0  9992,2 53978  53.2180 255.6738 0000925 110.5106 249.5986 15.08831655 79279,6917.906,95.438,540.411,539.131,0.0
53978.0,STARLINK-5148,PAYLOAD,2024-03-09 20:34:59,15.0885596,4.07e-05,53.2185,255.3764,132.799,227.3037,0.00016656,2.365e-05,0.0,0 STARLINK-5148,1 53978U 22125Q   24069.85763344  .00002365  00000-0  16656-3 0  9998,2 53978  53.2185 255.3764 0000407 132.7990 227.3037 15.08855960 79212,6917.832,95.437,539.978,539.415,0.0
53978.0,STARLINK-5148,PAYLOAD,2024-03-10 18:50:27,15.08806618,0.0001133,53.213,251.2112,300.9439,59.1442,-0.00039164,-6.509e-05,0.0,0 STARLINK-5148,1 53978U 22125Q   24070.78503571 -.00006509  00000-0 -39164-3 0  9991,2 53978  53.2130 251.2112 0001133 300.9439  59.1442 15.08806618 79428,6917.982,95.44,540.631,539.064,0.0
53978.0,STARLINK-5148,PAYLOAD,2024-03-10 22:01:11,15.08846523,6.6e-05,53.2152,250.6179,19.4482,340.6535,-0.00010415,-1.945e-05,0.0,0 STARLINK-5148,1 53978U 22125Q   24070.91748869 -.00001945  00000-0 -10415-3 0  9994,2 53978  53.2152 250.6179 0000660  19.4482 340.6535 15.08846523 79376,6917.86,95.437,540.182,539.269,0.0
53978.0,STARLINK-5148,PAYLOAD,2024-03-11 04:22:42,15.08850397,0.000149,53.2161,249.429,275.522,84.5602,-0.00010247,-1.919e-05,0.0,0 STARLINK-5148,1 53978U 22125Q   24071.18243973 -.00001919  00000-0 -10247-3 0  9994,2 53978  53.2161 249.4290 0001490 275.5220  84.5602 15.08850397 79488,6917.849,95.437,540.744,538.683,0.0
53978.0,STARLINK-5148,PAYLOAD,2024-03-11 18:41:11,15.08842659,0.0001101,53.2145,246.7517,90.7116,269.4003,7.2661e-05,8.69e-06,0.0,0 STARLINK-5148,1 53978U 22125Q   24071.77860644  .00000869  00000-0  72661-4 0  9999,2 53978  53.2145 246.7517 0001101  90.7116 269.4003 15.08842659 79573,6917.872,95.437,540.499,538.976,0.0
53978.0,STARLINK-5148,PAYLOAD,2024-03-12 10:35:03,15.08838208,0.0001088,53.2085,243.7783,87.9957,272.116,8.0659e-05,9.96e-06,0.0,0 STARLINK-5148,1 53978U 22125Q   24072.44101089  .00000996  00000-0  80659-4 0  9992,2 53978  53.2085 243.7783 0001088  87.9957 272.1160 15.08838208 79674,6917.886,95.438,540.504,538.998,0.0
53978.0,STARLINK-5148,PAYLOAD,2024-03-13 04:04:18,15.08837475,0.000106,53.2113,240.5062,73.5552,286.5557,6.6543e-05,7.71e-06,0.0,0 STARLINK-5148,1 53978U 22125Q   24073.16965316  .00000771  00000-0  66543-4 0  9990,2 53978  53.2113 240.5062 0001060  73.5552 286.5557 15.08837475 79712,6917.888,95.438,540.486,539.02,0.0
53978.0,STARLINK-5148,PAYLOAD,2024-03-13 19:58:09,15.08840732,0.0001511,53.2143,237.5321,75.378,284.738,0.00010177,1.332e-05,0.0,0 STARLINK-5148,1 53978U 22125Q   24073.83205095  .00001332  00000-0  10177-3 0  9990,2 53978  53.2143 237.5321 0001511  75.3780 284.7380 15.08840732 79885,6917.878,95.438,540.788,538.698,0.0
53978.0,STARLINK-5148,PAYLOAD,2024-03-14 03:55:05,15.0883994,0.0001605,53.2154,236.0469,86.0338,274.0838,7.5304e-05,9.11e-06,0.0,0 STARLINK-5148,1 53978U 22125Q   24074.16325259  .00000911  00000-0  75304-4 0  9998,2 53978  53.2154 236.0469 0001605  86.0338 274.0838 15.08839940 79863,6917.881,95.438,540.856,538.635,0.0
53978.0,STARLINK-5148,PAYLOAD,2024-03-14 19:48:55,15.08846961,0.0001038,53.2165,233.0713,81.8788,278.2322,8.8598e-05,1.123e-05,0.0,0 STARLINK-5148,1 53978U 22125Q   24074.82564563  .00001123  00000-0  88598-4 0  9999,2 53978  53.2165 233.0713 0001038  81.8788 278.2322 15.08846961 79962,6917.859,95.437,540.442,539.006,0.0
53978.0,STARLINK-5148,PAYLOAD,2024-03-15 10:07:24,15.08836118,9.16e-05,53.2169,230.3979,86.653,273.4566,5.8106e-06,-1.95e-06,0.0,0 STARLINK-5148,1 53978U 22125Q   24075.42181526 -.00000195  00000-0  58106-5 0  9992,2 53978  53.2169 230.3979 0000916  86.6530 273.4566 15.08836118 80122,6917.892,95.438,540.391,539.124,0.0
53978.0,STARLINK-5148,PAYLOAD,2024-03-16 13:08:57,15.08846783,0.000131,53.2161,225.3427,89.0177,271.0965,-1.5542e-05,-5.35e-06,0.0,0 STARLINK-5148,1 53978U 22125Q   24076.54788910 -.00000535  00000-0 -15542-4 0  9991,2 53978  53.2161 225.3427 0001310  89.0177 271.0965 15.08846783 80293,6917.86,95.437,540.631,538.818,0.0
53978.0,STARLINK-5148,PAYLOAD,2024-03-16 14:44:20,15.08854558,0.0001532,53.2165,225.0446,94.1729,265.9439,-0.00010437,-1.949e-05,0.0,0 STARLINK-5148,1 53978U 22125Q   24076.61412481 -.00001949  00000-0 -10437-3 0  9993,2 53978  53.2165 225.0446 0001532  94.1729 265.9439 15.08854558 80232,6917.836,95.437,540.761,538.641,0.0
53978.0,STARLINK-5148,PAYLOAD,2024-03-16 16:19:45,15.08725064,0.000204,53.2171,224.7478,120.2129,239.9065,0.0017034,0.0002684,0.0,0 STARLINK-5148,1 53978U 22125Q   24076.68038441  .00026840  00000-0  17034-2 0  9994,2 53978  53.2171 224.7478 0002040 120.2129 239.9065 15.08725064 80314,6918.232,95.445,541.508,538.685,0.0
53978.0,STARLINK-5148,PAYLOAD,2024-03-17 12:59:45,15.08836294,0.0001612,53.2175,220.8841,101.7446,258.3728,5.5262e-05,5.92e-06,0.0,0 STARLINK-5148,1 53978U 22125Q   24077.54149560  .00000592  00000-0  55262-4 0  9998,2 53978  53.2175 220.8841 0001612 101.7446 258.3728 15.08836294 80442,6917.892,95.438,540.872,538.642,0.0
53978.0,STARLINK-5148,PAYLOAD,2024-03-17 14:35:08,15.08836161,0.000164,53.2179,220.5865,106.9144,253.2028,5.1547e-05,5.32e-06,0.0,0 STARLINK-5148,1 53978U 22125Q   24077.60773556  .00000532  00000-0  51547-4 0  9999,2 53978  53.2179 220.5865 0001640 106.9144 253.2028 15.08836161 80385,6917.892,95.438,540.892,538.623,0.0
53978.0,STARLINK-5148,PAYLOAD,2024-03-17 19:21:17,15.088391,0.0001439,53.2167,219.6917,97.8366,262.279,6.9908e-05,8.25e-06,0.0,0 STARLINK-5148,1 53978U 22125Q   24077.80645388  .00000825  00000-0  69908-4 0  9997,2 53978  53.2167 219.6917 0001439  97.8366 262.2790 15.08839100 80415,6917.883,95.438,540.744,538.753,0.0
53978.0,STARLINK-5148,PAYLOAD,2024-03-18 19:12:04,15.08840634,0.0001414,53.2167,215.2309,93.8723,266.243,4.9046e-05,4.93e-06,0.0,0 STARLINK-5148,1 53978U 22125Q   24078.80005437  .00000493  00000-0  49046-4 0  9995,2 53978  53.2167 215.2309 0001414  93.8723 266.2430 15.08840634 80631,6917.878,95.438,540.722,538.765,0.0
53978.0,STARLINK-5148,PAYLOAD,2024-03-19 07:55:10,15.08837737,0.0001334,53.2171,212.853,82.5383,277.576,3.6324e-05,2.9e-06,0.0,0 STARLINK-5148,1 53978U 22125Q   24079.32997871  .00000290  00000-0  36324-4 0  9995,2 53978  53.2171 212.8530 0001334  82.5383 277.5760 15.08837737 80645,6917.887,95.438,540.675,538.829,0.0
